{"fetched_at":"2026-07-14T06:34:21.837Z","source":"https://celestrak.org/NORAD/elements/gp.php?GROUP=oneweb&FORMAT=JSON","constellation":"oneweb","records":[{"OBJECT_NAME":"ONEWEB-0504","OBJECT_ID":"2022-138K","EPOCH":"2026-07-13T19:34:43.125888","CLASSIFICATION_TYPE":"U","MEAN_MOTION":13.19726025,"ECCENTRICITY":0.0001874,"INCLINATION":87.9189,"RA_OF_ASC_NODE":299.6654,"ARG_OF_PERICENTER":108.9439,"MEAN_ANOMALY":251.1897,"EPHEMERIS_TYPE":0,"NORAD_CAT_ID":54122,"ELEMENT_SET_NO":999,"REV_AT_EPOCH":18034,"BSTAR":-0.00024014,"MEAN_MOTION_DOT":-8.3e-7,"MEAN_MOTION_DDOT":0},{"OBJECT_NAME":"ONEWEB-0505","OBJECT_ID":"2022-138L","EPOCH":"2026-07-13T17:40:57.798048","CLASSIFICATION_TYPE":"U","MEAN_MOTION":13.19727315,"ECCENTRICITY":0.0001906,"INCLINATION":87.9184,"RA_OF_ASC_NODE":299.6824,"ARG_OF_PERICENTER":114.5353,"MEAN_ANOMALY":245.5979,"EPHEMERIS_TYPE":0,"NORAD_CAT_ID":54123,"ELEMENT_SET_NO":999,"REV_AT_EPOCH":18031,"BSTAR":-0.000059105,"MEAN_MOTION_DOT":-1.1e-7,"MEAN_MOTION_DDOT":0},{"OBJECT_NAME":"ONEWEB-0506","OBJECT_ID":"2022-138M","EPOCH":"2026-07-13T18:53:47.657760","CLASSIFICATION_TYPE":"U","MEAN_MOTION":13.19725196,"ECCENTRICITY":0.0002002,"INCLINATION":87.9195,"RA_OF_ASC_NODE":299.6689,"ARG_OF_PERICENTER":110.0642,"MEAN_ANOMALY":250.0706,"EPHEMERIS_TYPE":0,"NORAD_CAT_ID":54124,"ELEMENT_SET_NO":999,"REV_AT_EPOCH":18031,"BSTAR":0.000054327,"MEAN_MOTION_DOT":3.5e-7,"MEAN_MOTION_DDOT":0},{"OBJECT_NAME":"ONEWEB-0507","OBJECT_ID":"2022-138N","EPOCH":"2026-07-13T19:23:20.457024","CLASSIFICATION_TYPE":"U","MEAN_MOTION":13.19726402,"ECCENTRICITY":0.0002036,"INCLINATION":87.9186,"RA_OF_ASC_NODE":299.6743,"ARG_OF_PERICENTER":106.7696,"MEAN_ANOMALY":253.366,"EPHEMERIS_TYPE":0,"NORAD_CAT_ID":54125,"ELEMENT_SET_NO":999,"REV_AT_EPOCH":18036,"BSTAR":-0.000033416,"MEAN_MOTION_DOT":0,"MEAN_MOTION_DDOT":0},{"OBJECT_NAME":"ONEWEB-0508","OBJECT_ID":"2022-138P","EPOCH":"2026-07-13T19:18:47.902176","CLASSIFICATION_TYPE":"U","MEAN_MOTION":13.19726135,"ECCENTRICITY":0.0002213,"INCLINATION":87.9161,"RA_OF_ASC_NODE":299.678,"ARG_OF_PERICENTER":120.2852,"MEAN_ANOMALY":239.8499,"EPHEMERIS_TYPE":0,"NORAD_CAT_ID":54126,"ELEMENT_SET_NO":999,"REV_AT_EPOCH":18034,"BSTAR":0.00054201,"MEAN_MOTION_DOT":0.0000023,"MEAN_MOTION_DDOT":0},{"OBJECT_NAME":"ONEWEB-0509","OBJECT_ID":"2022-138Q","EPOCH":"2026-07-13T20:31:34.313664","CLASSIFICATION_TYPE":"U","MEAN_MOTION":13.19724241,"ECCENTRICITY":0.0002016,"INCLINATION":87.9194,"RA_OF_ASC_NODE":299.6571,"ARG_OF_PERICENTER":105.2196,"MEAN_ANOMALY":254.916,"EPHEMERIS_TYPE":0,"NORAD_CAT_ID":54127,"ELEMENT_SET_NO":999,"REV_AT_EPOCH":18032,"BSTAR":-0.0000064387,"MEAN_MOTION_DOT":1e-7,"MEAN_MOTION_DDOT":0},{"OBJECT_NAME":"ONEWEB-0510","OBJECT_ID":"2022-138R","EPOCH":"2026-07-13T17:20:36.017376","CLASSIFICATION_TYPE":"U","MEAN_MOTION":13.20770016,"ECCENTRICITY":0.0002002,"INCLINATION":87.9176,"RA_OF_ASC_NODE":269.1507,"ARG_OF_PERICENTER":92.9569,"MEAN_ANOMALY":267.1794,"EPHEMERIS_TYPE":0,"NORAD_CAT_ID":54128,"ELEMENT_SET_NO":999,"REV_AT_EPOCH":18278,"BSTAR":0.000041128,"MEAN_MOTION_DOT":3e-7,"MEAN_MOTION_DDOT":0},{"OBJECT_NAME":"ONEWEB-0511","OBJECT_ID":"2022-138S","EPOCH":"2026-07-13T18:37:50.026080","CLASSIFICATION_TYPE":"U","MEAN_MOTION":13.19723506,"ECCENTRICITY":0.0001725,"INCLINATION":87.9191,"RA_OF_ASC_NODE":299.674,"ARG_OF_PERICENTER":102.964,"MEAN_ANOMALY":257.1685,"EPHEMERIS_TYPE":0,"NORAD_CAT_ID":54129,"ELEMENT_SET_NO":999,"REV_AT_EPOCH":18034,"BSTAR":0.000070769,"MEAN_MOTION_DOT":4.1e-7,"MEAN_MOTION_DDOT":0},{"OBJECT_NAME":"ONEWEB-0512","OBJECT_ID":"2022-138T","EPOCH":"2026-07-13T20:15:38.625120","CLASSIFICATION_TYPE":"U","MEAN_MOTION":13.19726729,"ECCENTRICITY":0.0001874,"INCLINATION":87.9182,"RA_OF_ASC_NODE":299.664,"ARG_OF_PERICENTER":111.5951,"MEAN_ANOMALY":248.5381,"EPHEMERIS_TYPE":0,"NORAD_CAT_ID":54130,"ELEMENT_SET_NO":999,"REV_AT_EPOCH":18032,"BSTAR":-0.00014835,"MEAN_MOTION_DOT":-4.6e-7,"MEAN_MOTION_DDOT":0},{"OBJECT_NAME":"ONEWEB-0513","OBJECT_ID":"2022-138U","EPOCH":"2026-07-13T20:07:56.869824","CLASSIFICATION_TYPE":"U","MEAN_MOTION":13.20269331,"ECCENTRICITY":0.0001486,"INCLINATION":87.9192,"RA_OF_ASC_NODE":299.6058,"ARG_OF_PERICENTER":125.3876,"MEAN_ANOMALY":234.7396,"EPHEMERIS_TYPE":0,"NORAD_CAT_ID":54131,"ELEMENT_SET_NO":999,"REV_AT_EPOCH":18023,"BSTAR":-0.000039941,"MEAN_MOTION_DOT":-3e-8,"MEAN_MOTION_DDOT":0},{"OBJECT_NAME":"ONEWEB-0514","OBJECT_ID":"2022-138V","EPOCH":"2026-07-13T20:38:23.915328","CLASSIFICATION_TYPE":"U","MEAN_MOTION":13.19726127,"ECCENTRICITY":0.0001954,"INCLINATION":87.9189,"RA_OF_ASC_NODE":299.6573,"ARG_OF_PERICENTER":96.6314,"MEAN_ANOMALY":263.5042,"EPHEMERIS_TYPE":0,"NORAD_CAT_ID":54132,"ELEMENT_SET_NO":999,"REV_AT_EPOCH":18034,"BSTAR":0.00016468,"MEAN_MOTION_DOT":7.9e-7,"MEAN_MOTION_DDOT":0},{"OBJECT_NAME":"ONEWEB-0515","OBJECT_ID":"2022-138W","EPOCH":"2026-07-13T17:01:14.008224","CLASSIFICATION_TYPE":"U","MEAN_MOTION":13.20771723,"ECCENTRICITY":0.0002779,"INCLINATION":87.9192,"RA_OF_ASC_NODE":269.147,"ARG_OF_PERICENTER":88.4279,"MEAN_ANOMALY":271.7173,"EPHEMERIS_TYPE":0,"NORAD_CAT_ID":54133,"ELEMENT_SET_NO":999,"REV_AT_EPOCH":18280,"BSTAR":0.00016935,"MEAN_MOTION_DOT":8.2e-7,"MEAN_MOTION_DDOT":0},{"OBJECT_NAME":"ONEWEB-0516","OBJECT_ID":"2022-138X","EPOCH":"2026-07-13T20:01:59.623968","CLASSIFICATION_TYPE":"U","MEAN_MOTION":13.19723976,"ECCENTRICITY":0.0002127,"INCLINATION":87.9187,"RA_OF_ASC_NODE":299.6655,"ARG_OF_PERICENTER":102.8763,"MEAN_ANOMALY":257.2607,"EPHEMERIS_TYPE":0,"NORAD_CAT_ID":54134,"ELEMENT_SET_NO":999,"REV_AT_EPOCH":18034,"BSTAR":-0.000011781,"MEAN_MOTION_DOT":8e-8,"MEAN_MOTION_DDOT":0},{"OBJECT_NAME":"ONEWEB-0517","OBJECT_ID":"2022-138Y","EPOCH":"2026-07-13T19:32:26.600064","CLASSIFICATION_TYPE":"U","MEAN_MOTION":13.19726045,"ECCENTRICITY":0.0001775,"INCLINATION":87.9203,"RA_OF_ASC_NODE":299.6628,"ARG_OF_PERICENTER":93.8728,"MEAN_ANOMALY":266.2608,"EPHEMERIS_TYPE":0,"NORAD_CAT_ID":54135,"ELEMENT_SET_NO":999,"REV_AT_EPOCH":18034,"BSTAR":0.000041999,"MEAN_MOTION_DOT":3e-7,"MEAN_MOTION_DDOT":0},{"OBJECT_NAME":"ONEWEB-0518","OBJECT_ID":"2022-138Z","EPOCH":"2026-07-13T18:10:33.110688","CLASSIFICATION_TYPE":"U","MEAN_MOTION":13.19723914,"ECCENTRICITY":0.00022,"INCLINATION":87.9184,"RA_OF_ASC_NODE":299.6836,"ARG_OF_PERICENTER":103.7587,"MEAN_ANOMALY":256.379,"EPHEMERIS_TYPE":0,"NORAD_CAT_ID":54136,"ELEMENT_SET_NO":999,"REV_AT_EPOCH":18033,"BSTAR":-0.000015219,"MEAN_MOTION_DOT":7e-8,"MEAN_MOTION_DDOT":0},{"OBJECT_NAME":"ONEWEB-0519","OBJECT_ID":"2022-138AA","EPOCH":"2026-07-13T20:36:06.331968","CLASSIFICATION_TYPE":"U","MEAN_MOTION":13.1972361,"ECCENTRICITY":0.0001811,"INCLINATION":87.9191,"RA_OF_ASC_NODE":299.6565,"ARG_OF_PERICENTER":98.0724,"MEAN_ANOMALY":262.0614,"EPHEMERIS_TYPE":0,"NORAD_CAT_ID":54137,"ELEMENT_SET_NO":999,"REV_AT_EPOCH":18035,"BSTAR":0.00014044,"MEAN_MOTION_DOT":6.9e-7,"MEAN_MOTION_DDOT":0}]}
